[{"OBJECT_NAME":"STARLINK-4380","OBJECT_ID":"2022-105C","EPOCH":"2026-03-09T15:23:26.573856","MEAN_MOTION":15.01236314,"ECCENTRICITY":8.32e-5,"INCLINATION":97.6031,"RA_OF_ASC_NODE":310.1536,"ARG_OF_PERICENTER":108.7085,"MEAN_ANOMALY":251.423,"EPHEMERIS_TYPE":0,"CLASSIFICATION_TYPE":"U","NORAD_CAT_ID":53650,"ELEMENT_SET_NO":999,"REV_AT_EPOCH":19322,"BSTAR":0.00076256,"MEAN_MOTION_DOT":9.743e-5,"MEAN_MOTION_DDOT":0},{"OBJECT_NAME":"PEGASUS DEB","OBJECT_ID":"1994-029ACF","EPOCH":"2026-03-09T05:20:07.680768","MEAN_MOTION":14.35928851,"ECCENTRICITY":0.02972475,"INCLINATION":82.0143,"RA_OF_ASC_NODE":138.1597,"ARG_OF_PERICENTER":90.0358,"MEAN_ANOMALY":326.3453,"EPHEMERIS_TYPE":0,"CLASSIFICATION_TYPE":"U","NORAD_CAT_ID":24973,"ELEMENT_SET_NO":999,"REV_AT_EPOCH":53449,"BSTAR":0.00058141957,"MEAN_MOTION_DOT":2.825e-5,"MEAN_MOTION_DDOT":0}]
